NORAD_CAT_ID,OBJECT_NAME,OBJECT_TYPE,EPOCH,MEAN_MOTION,ECCENTRICITY,INCLINATION,RA_OF_ASC_NODE,ARG_OF_PERICENTER,MEAN_ANOMALY,BSTAR,MEAN_MOTION_DOT,MEAN_MOTION_DDOT,TLE_LINE0,TLE_LINE1,TLE_LINE2,SEMIMAJOR_AXIS,PERIOD,APOGEE,PERIGEE,DECAYED
52346.0,STARLINK-3812,PAYLOAD,2022-07-02 22:00:00,15.37442156,0.0001558,53.2177,122.4538,52.2667,112.3652,-0.02081,-0.00716408,0.0,0 STARLINK-3812,1 52346U 22045R   22183.91667824 -.00716408  00000-0 -20810-1 0  9992,2 52346  53.2177 122.4538 0001558  52.2667 112.3652 15.37442156  1301,6831.813,93.662,454.74300000000005,452.614,0.0
52346.0,STARLINK-3812,PAYLOAD,2022-07-03 00:00:00,15.37314394,0.0001488,53.2175,122.0634,53.7947,212.3077,-0.020875,-0.00715704,0.0,0 STARLINK-3812,1 52346U 22045R   22184.00001157 -.00715704  00000-0 -20875-1 0  9993,2 52346  53.2175 122.0634 0001488  53.7947 212.3077 15.37314394 12600,6832.191999999999,93.67,455.073,453.04,0.0
52346.0,STARLINK-3812,PAYLOAD,2022-07-03 14:00:01,15.36423435,0.0001395,53.2176,119.3271,58.8377,196.4887,-0.021572,-0.0071827,0.0,0 STARLINK-3812,1 52346U 22045R   22184.58334491 -.00718270  00000-0 -21572-1 0  9992,2 52346  53.2176 119.3271 0001395  58.8377 196.4887 15.36423435  1309,6834.833000000001,93.724,457.651,455.744,0.0
52346.0,STARLINK-3812,PAYLOAD,2022-07-03 22:00:00,15.35913274,0.0001543,53.2177,117.7659,46.4262,253.3281,-0.021911,-0.00717685,0.0,0 STARLINK-3812,1 52346U 22045R   22184.91667824 -.00717685  00000-0 -21911-1 0  9994,2 52346  53.2177 117.7659 0001543  46.4262 253.3281 15.35913274  1308,6836.346,93.755,459.266,457.156,0.0
52346.0,STARLINK-3812,PAYLOAD,2022-07-04 06:00:00,15.35401697,0.0001468,53.2175,116.2072,48.0387,295.5307,-0.022181,-0.0071486,0.0,0 STARLINK-3812,1 52346U 22045R   22185.25001157 -.00714860  00000-0 -22181-1 0  9995,2 52346  53.2175 116.2072 0001468  48.0387 295.5307 15.35401697 12794,6837.865,93.787,460.733,458.726,0.0
52346.0,STARLINK-3812,PAYLOAD,2022-07-04 14:00:01,15.3489266,0.0001378,53.2175,114.6462,49.4146,337.3586,-0.02263,-0.00717287,0.0,0 STARLINK-3812,1 52346U 22045R   22185.58334491 -.00717287  00000-0 -22630-1 0  9996,2 52346  53.2175 114.6462 0001378  49.4146 337.3586 15.34892660  1309,6839.376,93.818,462.184,460.299,0.0
52346.0,STARLINK-3812,PAYLOAD,2022-07-04 22:00:00,15.34384082,0.0001622,53.2177,113.0889,41.6612,27.7009,-0.02307,-0.0071929,0.0,0 STARLINK-3812,1 52346U 22045R   22185.91667824 -.00719290  00000-0 -23070-1 0  9997,2 52346  53.2177 113.0889 0001622  41.6612  27.7009 15.34384082  1305,6840.888000000001,93.849,463.862,461.643,0.0
52346.0,STARLINK-3812,PAYLOAD,2022-07-05 08:00:01,15.33746643,0.0001488,53.2171,111.1443,56.3348,155.4022,-0.023529,-0.00718845,0.0,0 STARLINK-3812,1 52346U 22045R   22186.33334491 -.00718845  00000-0 -23529-1 0  9999,2 52346  53.2171 111.1443 0001488  56.3348 155.4022 15.33746643 12954,6842.783,93.888,465.666,463.63,0.0
52346.0,STARLINK-3812,PAYLOAD,2022-07-05 14:00:01,15.33361511,0.0001538,53.2174,109.9764,50.1547,102.5499,-0.023666,-0.0071458,0.0,0 STARLINK-3812,1 52346U 22045R   22186.58334491 -.00714580  00000-0 -23666-1 0  9990,2 52346  53.2174 109.9764 0001538  50.1547 102.5499 15.33361511  1302,6843.929,93.911,466.846,464.741,0.0
52346.0,STARLINK-3812,PAYLOAD,2022-07-05 22:00:00,15.32852213,0.0001671,53.2177,108.4228,47.0512,146.4042,-0.024093,-0.00715741,0.0,0 STARLINK-3812,1 52346U 22045R   22186.91667824 -.00715741  00000-0 -24093-1 0  9991,2 52346  53.2177 108.4228 0001671  47.0512 146.4042 15.32852213  1303,6845.444,93.943,468.453,466.166,0.0
52346.0,STARLINK-3812,PAYLOAD,2022-07-06 14:00:01,15.31831388,0.0001419,53.2175,105.3172,55.8192,217.3016,-0.024819,-0.00714032,0.0,0 STARLINK-3812,1 52346U 22045R   22187.58334491 -.00714032  00000-0 -24819-1 0  9994,2 52346  53.2175 105.3172 0001419  55.8192 217.3016 15.31831388 13150,6848.485,94.005,471.322,469.379,0.0
52346.0,STARLINK-3812,PAYLOAD,2022-07-06 22:00:00,15.31322869,0.0001426,53.2175,103.7674,54.1314,257.9014,-0.025302,-0.00716214,0.0,0 STARLINK-3812,1 52346U 22045R   22187.91667824 -.00716214  00000-0 -25302-1 0  9992,2 52346  53.2175 103.7674 0001426  54.1314 257.9014 15.31322869  1306,6850.001,94.036,472.843,470.89,0.0
52346.0,STARLINK-3812,PAYLOAD,2022-07-07 02:55:15,15.32283977,0.0001877,53.2141,102.8324,354.9154,5.1829,-0.0070464,-0.00216751,0.0,0 STARLINK-3812,1 52346U 22045R   22188.12170437 -.00216751  00000-0 -70464-2 0  9996,2 52346  53.2141 102.8324 0001877 354.9154   5.1829 15.32283977 13233,6847.137,93.977,470.287,467.717,0.0
52346.0,STARLINK-3812,PAYLOAD,2022-07-07 14:00:01,15.30301037,0.0001372,53.2173,100.6689,50.8425,337.1797,-0.026026,-0.00713741,0.0,0 STARLINK-3812,1 52346U 22045R   22188.58334491 -.00713741  00000-0 -26026-1 0  9993,2 52346  53.2173 100.6689 0001372  50.8425 337.1797 15.30301037 13307,6853.05,94.099,475.856,473.975,0.0
52346.0,STARLINK-3812,PAYLOAD,2022-07-07 20:09:34,15.31278169,0.0002662,53.2144,99.4971,338.6308,21.4583,-0.0075174,-0.00223864,0.0,0 STARLINK-3812,1 52346U 22045R   22188.83998610 -.00223864  00000-0 -75174-2 0  9991,2 52346  53.2144  99.4971 0002662 338.6308  21.4583 15.31278169 13344,6850.135,94.039,473.823,470.176,0.0
52346.0,STARLINK-3812,PAYLOAD,2022-07-08 14:00:01,15.28771835,0.0001501,53.2173,96.0316,52.2495,85.1582,-0.027329,-0.00714697,0.0,0 STARLINK-3812,1 52346U 22045R   22189.58334491 -.00714697  00000-0 -27329-1 0  9992,2 52346  53.2173  96.0316 0001501  52.2495  85.1582 15.28771835 13451,6857.62,94.193,480.514,478.455,0.0
52346.0,STARLINK-3812,PAYLOAD,2022-07-08 22:00:01,15.28261477,0.0001649,53.2174,94.4891,49.6426,123.0646,-0.027727,-0.00722122,0.0,0 STARLINK-3812,1 52346U 22045R   22189.91668981 -.00722122  00000-0 -27727-1 0  9997,2 52346  53.2174  94.4891 0001649  49.6426 123.0646 15.28261477  1309,6859.146,94.225,482.142,479.88,0.0
52346.0,STARLINK-3812,PAYLOAD,2022-07-09 14:00:01,15.2724157,0.0001520999999999,53.2172,91.4048,53.1577,188.1209,-0.028603,-0.00722001,0.0,0 STARLINK-3812,1 52346U 22045R   22190.58334491 -.00722001  00000-0 -28603-1 0  9998,2 52346  53.2172  91.4048 0001521  53.1577 188.1209 15.27241570  1302,6862.2,94.288,485.108,483.021,0.0
52346.0,STARLINK-3812,PAYLOAD,2022-07-09 16:00:00,15.27113433,0.0001440999999999,53.2172,91.0197,51.7728,287.913,-0.028691,-0.00721424,0.0,0 STARLINK-3812,1 52346U 22045R   22190.66667824 -.00721424  00000-0 -28691-1 0  9991,2 52346  53.2172  91.0197 0001441  51.7728 287.9130 15.27113433 13610,6862.584,94.296,485.437,483.46,0.0
52346.0,STARLINK-3812,PAYLOAD,2022-07-09 20:00:01,15.26859929,0.0001709,53.2175,90.2506,47.2706,129.1131,-0.028999,-0.00723442,0.0,0 STARLINK-3812,1 52346U 22045R   22190.83334491 -.00723442  00000-0 -28999-1 0  9994,2 52346  53.2175  90.2506 0001709  47.2706 129.1131 15.26859929  1308,6863.343000000003,94.311,486.381,484.035,0.0
52346.0,STARLINK-3812,PAYLOAD,2022-07-10 14:00:01,15.25710502,0.0001486,53.2172,86.7891,46.9695,292.6653,-0.029889,-0.00720254,0.0,0 STARLINK-3812,1 52346U 22045R   22191.58334491 -.00720254  00000-0 -29889-1 0  9994,2 52346  53.2172  86.7891 0001486  46.9695 292.6653 15.25710502  1304,6866.79,94.382,489.675,487.634,0.0
52346.0,STARLINK-3812,PAYLOAD,2022-07-10 22:00:00,15.25203135,0.0001591,53.2173,85.2542,44.5559,326.6364,-0.03052,-0.00724013,0.0,0 STARLINK-3812,1 52346U 22045R   22191.91667824 -.00724013  00000-0 -30520-1 0  9991,2 52346  53.2173  85.2542 0001591  44.5559 326.6364 15.25203135 13817,6868.313,94.414,491.27,489.085,0.0
52346.0,STARLINK-3812,PAYLOAD,2022-07-11 14:00:01,15.24181631,0.0001474,53.2173,82.1839,49.839,22.6361,-0.031394,-0.00722309,0.0,0 STARLINK-3812,1 52346U 22045R   22192.58334491 -.00722309  00000-0 -31394-1 0  9992,2 52346  53.2173  82.1839 0001474  49.8390  22.6361 15.24181631  1309,6871.380999999999,94.477,494.259,492.233,0.0
52346.0,STARLINK-3812,PAYLOAD,2022-07-11 22:00:00,15.23672818,0.0001734,53.2173,80.653,42.8725,59.3223,-0.031942,-0.00723733,0.0,0 STARLINK-3812,1 52346U 22045R   22192.91667824 -.00723733  00000-0 -31942-1 0  9999,2 52346  53.2173  80.6530 0001734  42.8725  59.3223 15.23672818 13964,6872.911,94.508,495.967,493.584,0.0
52346.0,STARLINK-3812,PAYLOAD,2022-07-12 14:00:01,15.22653594,0.0001646,53.2172,77.5898,48.2005,111.5993,-0.033019,-0.00725595,0.0,0 STARLINK-3812,1 52346U 22045R   22193.58334491 -.00725595  00000-0 -33019-1 0  9999,2 52346  53.2172  77.5898 0001646  48.2005 111.5993 15.22653594  1307,6875.977,94.572,498.974,496.711,0.0
52346.0,STARLINK-3812,PAYLOAD,2022-07-12 22:00:00,15.22141301,0.0001726,53.2173,76.0623,48.2358,139.4467,-0.033303,-0.00721119,0.0,0 STARLINK-3812,1 52346U 22045R   22193.91667824 -.00721119  00000-0 -33303-1 0  9999,2 52346  53.2173  76.0623 0001726  48.2358 139.4467 15.22141301 14114,6877.52,94.604,500.572,498.198,0.0
52346.0,STARLINK-3812,PAYLOAD,2022-07-13 14:00:01,15.21122838,0.0001587,53.2172,73.0062,52.1759,189.4346,-0.034473,-0.00724091,0.0,0 STARLINK-3812,1 52346U 22045R   22194.58334491 -.00724091  00000-0 -34473-1 0  9995,2 52346  53.2172  73.0062 0001587  52.1759 189.4346 15.21122838  1302,6880.59,94.667,503.546,501.36300000000006,0.0
52346.0,STARLINK-3812,PAYLOAD,2022-07-13 22:00:00,15.20611528,0.0001781,53.2173,71.4826,43.3342,224.3201,-0.03484,-0.00721109,0.0,0 STARLINK-3812,1 52346U 22045R   22194.91667824 -.00721109  00000-0 -34840-1 0  9996,2 52346  53.2173  71.4826 0001781  43.3342 224.3201 15.20611528 14265,6882.132,94.699,505.223,502.771,0.0
52346.0,STARLINK-3812,PAYLOAD,2022-07-14 14:00:01,15.19591085,0.0001526,53.2173,68.4335,50.0014,267.905,-0.035878,-0.00720722,0.0,0 STARLINK-3812,1 52346U 22045R   22195.58334491 -.00720722  00000-0 -35878-1 0  9993,2 52346  53.2173  68.4335 0001526  50.0014 267.9050 15.19591085  1303,6885.2130000000025,94.762,508.128,506.027,0.0
